{
  "type": "FeatureCollection",
  "features": [
    {
      "type": "Feature",
      "properties": {
        "norad_id": 39773,
        "name": "EUTELSAT 3B",
        "group": "eutelsat",
        "lat": -0.030500497463051078,
        "lon": -13.3418537967384,
        "alt_km": 35793.979221214824,
        "timestamp": "2025-12-08T17:43:04.566545+00:00",
        "meta_object_name": "EUTELSAT 3B",
        "meta_object_id": "2014-030A",
        "meta_epoch": "2025-12-08T01:37:58.861632",
        "meta_mean_motion": 1.00272157,
        "meta_eccentricity": 0.00046528,
        "meta_inclination": 0.0657,
        "meta_ra_of_asc_node": 14.3376,
        "meta_arg_of_pericenter": 217.9567,
        "meta_mean_anomaly": 232.3839,
        "meta_ephemeris_type": 0,
        "meta_classification_type": "U",
        "meta_norad_cat_id": 39773,
        "meta_element_set_no": 999,
        "meta_rev_at_epoch": 4215,
        "meta_bstar": 0,
        "meta_mean_motion_dot": 2.3e-07,
        "meta_mean_motion_ddot": 0,
        "tle_line1": "1 39773U 14030A   25342.06804238  .00000023  00000+0  00000+0 0  9997",
        "tle_line2": "2 39773   0.0657  14.3376 0004652 217.9567 232.3839  1.00272157 42154"
      },
      "geometry": {
        "type": "Point",
        "coordinates": [
          -13.3418537967384,
          -0.030500497463051078
        ]
      }
    },
    {
      "type": "Feature",
      "properties": {
        "norad_id": 40425,
        "name": "EUTELSAT 115 WEST B",
        "group": "eutelsat",
        "lat": 0.011219700333200296,
        "lon": -131.39325633129155,
        "alt_km": 35788.21978369691,
        "timestamp": "2025-12-08T17:43:04.566558+00:00",
        "meta_object_name": "EUTELSAT 115 WEST B",
        "meta_object_id": "2015-010B",
        "meta_epoch": "2025-12-08T01:04:24.577824",
        "meta_mean_motion": 1.00265397,
        "meta_eccentricity": 1.304e-05,
        "meta_inclination": 0.0096,
        "meta_ra_of_asc_node": 159.4384,
        "meta_arg_of_pericenter": 297.017,
        "meta_mean_anomaly": 241.8202,
        "meta_ephemeris_type": 0,
        "meta_classification_type": "U",
        "meta_norad_cat_id": 40425,
        "meta_element_set_no": 999,
        "meta_rev_at_epoch": 3947,
        "meta_bstar": 0,
        "meta_mean_motion_dot": -2.1e-07,
        "meta_mean_motion_ddot": 0,
        "tle_line1": "1 40425U 15010B   25342.04472891 -.00000021  00000+0  00000+0 0  9995",
        "tle_line2": "2 40425   0.0096 159.4384 0000130 297.0170 241.8202  1.00265397 39471"
      },
      "geometry": {
        "type": "Point",
        "coordinates": [
          -131.39325633129155,
          0.011219700333200296
        ]
      }
    },
    {
      "type": "Feature",
      "properties": {
        "norad_id": 40875,
        "name": "EUTELSAT 8 WEST B",
        "group": "eutelsat",
        "lat": -0.02814325247979956,
        "lon": -24.434739022729556,
        "alt_km": 35782.1905446912,
        "timestamp": "2025-12-08T17:43:04.566572+00:00",
        "meta_object_name": "EUTELSAT 8 WEST B",
        "meta_object_id": "2015-039B",
        "meta_epoch": "2025-12-08T06:42:59.648256",
        "meta_mean_motion": 1.00271425,
        "meta_eccentricity": 0.00041396,
        "meta_inclination": 0.0646,
        "meta_ra_of_asc_node": 358.0552,
        "meta_arg_of_pericenter": 260.6381,
        "meta_mean_anomaly": 271.3584,
        "meta_ephemeris_type": 0,
        "meta_classification_type": "U",
        "meta_norad_cat_id": 40875,
        "meta_element_set_no": 999,
        "meta_rev_at_epoch": 3774,
        "meta_bstar": 0,
        "meta_mean_motion_dot": -6.3e-07,
        "meta_mean_motion_ddot": 0,
        "tle_line1": "1 40875U 15039B   25342.27985704 -.00000063  00000+0  00000+0 0  9998",
        "tle_line2": "2 40875   0.0646 358.0552 0004139 260.6381 271.3584  1.00271425 37746"
      },
      "geometry": {
        "type": "Point",
        "coordinates": [
          -24.434739022729556,
          -0.02814325247979956
        ]
      }
    },
    {
      "type": "Feature",
      "properties": {
        "norad_id": 41310,
        "name": "EUTELSAT 9B",
        "group": "eutelsat",
        "lat": -0.07175613223886068,
        "lon": -7.428578720217866,
        "alt_km": 35783.373885451685,
        "timestamp": "2025-12-08T17:43:04.566585+00:00",
        "meta_object_name": "EUTELSAT 9B",
        "meta_object_id": "2016-005A",
        "meta_epoch": "2025-12-08T03:22:26.357376",
        "meta_mean_motion": 1.00273093,
        "meta_eccentricity": 0.00050117,
        "meta_inclination": 0.078,
        "meta_ra_of_asc_node": 76.11,
        "meta_arg_of_pericenter": 192.7395,
        "meta_mean_anomaly": 227.9175,
        "meta_ephemeris_type": 0,
        "meta_classification_type": "U",
        "meta_norad_cat_id": 41310,
        "meta_element_set_no": 999,
        "meta_rev_at_epoch": 3620,
        "meta_bstar": 0,
        "meta_mean_motion_dot": 6.5e-07,
        "meta_mean_motion_ddot": 0,
        "tle_line1": "1 41310U 16005A   25342.14058284  .00000065  00000+0  00000+0 0  9998",
        "tle_line2": "2 41310   0.0780  76.1100 0005011 192.7395 227.9175  1.00273093 36203"
      },
      "geometry": {
        "type": "Point",
        "coordinates": [
          -7.428578720217866,
          -0.07175613223886068
        ]
      }
    },
    {
      "type": "Feature",
      "properties": {
        "norad_id": 41382,
        "name": "EUTELSAT 65 WEST A",
        "group": "eutelsat",
        "lat": -0.06871148936497079,
        "lon": -81.71279743957145,
        "alt_km": 35774.995190517046,
        "timestamp": "2025-12-08T17:43:04.566599+00:00",
        "meta_object_name": "EUTELSAT 65 WEST A",
        "meta_object_id": "2016-014A",
        "meta_epoch": "2025-12-08T04:44:03.538752",
        "meta_mean_motion": 1.0026917,
        "meta_eccentricity": 0.00028626,
        "meta_inclination": 0.0492,
        "meta_ra_of_asc_node": 0.7847,
        "meta_arg_of_pericenter": 266.3312,
        "meta_mean_anomaly": 175.887,
        "meta_ephemeris_type": 0,
        "meta_classification_type": "U",
        "meta_norad_cat_id": 41382,
        "meta_element_set_no": 999,
        "meta_rev_at_epoch": 3562,
        "meta_bstar": 0,
        "meta_mean_motion_dot": -2.73e-06,
        "meta_mean_motion_ddot": 0,
        "tle_line1": "1 41382U 16014A   25342.19726318 -.00000273  00000+0  00000+0 0  9994",
        "tle_line2": "2 41382   0.0492   0.7847 0002862 266.3312 175.8870  1.00269170 35620"
      },
      "geometry": {
        "type": "Point",
        "coordinates": [
          -81.71279743957145,
          -0.06871148936497079
        ]
      }
    },
    {
      "type": "Feature",
      "properties": {
        "norad_id": 41589,
        "name": "EUTELSAT 117 WEST B",
        "group": "eutelsat",
        "lat": 0.01420578356378606,
        "lon": -133.49315818984473,
        "alt_km": 35787.8008785425,
        "timestamp": "2025-12-08T17:43:04.566612+00:00",
        "meta_object_name": "EUTELSAT 117 WEST B",
        "meta_object_id": "2016-038B",
        "meta_epoch": "2025-12-08T05:51:27.089856",
        "meta_mean_motion": 1.00271014,
        "meta_eccentricity": 3.727e-05,
        "meta_inclination": 0.0062,
        "meta_ra_of_asc_node": 152.2728,
        "meta_arg_of_pericenter": 268.7532,
        "meta_mean_anomaly": 347.0922,
        "meta_ephemeris_type": 0,
        "meta_classification_type": "U",
        "meta_norad_cat_id": 41589,
        "meta_element_set_no": 999,
        "meta_rev_at_epoch": 3474,
        "meta_bstar": 0,
        "meta_mean_motion_dot": -9e-08,
        "meta_mean_motion_ddot": 0,
        "tle_line1": "1 41589U 16038B   25342.24406354 -.00000009  00000+0  00000+0 0  9997",
        "tle_line2": "2 41589   0.0062 152.2728 0000372 268.7532 347.0922  1.00271014 34740"
      },
      "geometry": {
        "type": "Point",
        "coordinates": [
          -133.49315818984473,
          0.01420578356378606
        ]
      }
    },
    {
      "type": "Feature",
      "properties": {
        "norad_id": 42741,
        "name": "EUTELSAT 172B",
        "group": "eutelsat",
        "lat": 0.0030516012211250555,
        "lon": 155.5082773370071,
        "alt_km": 35786.419972073825,
        "timestamp": "2025-12-08T17:43:04.566625+00:00",
        "meta_object_name": "EUTELSAT 172B",
        "meta_object_id": "2017-029B",
        "meta_epoch": "2025-12-08T02:26:16.735776",
        "meta_mean_motion": 1.00270118,
        "meta_eccentricity": 1.898e-05,
        "meta_inclination": 0.0115,
        "meta_ra_of_asc_node": 86.953,
        "meta_arg_of_pericenter": 151.0152,
        "meta_mean_anomaly": 47.7234,
        "meta_ephemeris_type": 0,
        "meta_classification_type": "U",
        "meta_norad_cat_id": 42741,
        "meta_element_set_no": 999,
        "meta_rev_at_epoch": 3181,
        "meta_bstar": 0,
        "meta_mean_motion_dot": -3e-08,
        "meta_mean_motion_ddot": 0,
        "tle_line1": "1 42741U 17029B   25342.10158259 -.00000003  00000+0  00000+0 0  9996",
        "tle_line2": "2 42741   0.0115  86.9530 0000189 151.0152  47.7234  1.00270118 31811"
      },
      "geometry": {
        "type": "Point",
        "coordinates": [
          155.5082773370071,
          0.0030516012211250555
        ]
      }
    }
  ]
}